{"type": "FeatureCollection", "features": [ {"type": "Feature", "properties": {"norad_id": 51444, "name": "CSG-2", "group": "resource", "lat": 9.877879016927869, "lon": 158.38712580583436, "alt_km": 623.9820118345588, "timestamp": "2025-12-04T07:39:35.828214+00:00", "meta": {"OBJECT_NAME": "CSG-2", "OBJECT_ID": "2022-008A", "EPOCH": "2025-12-03T23:30:49.669056", "MEAN_MOTION": 14.82150279, "ECCENTRICITY": 0.00014795, "INCLINATION": 97.8807, "RA_OF_ASC_NODE": 159.435, "ARG_OF_PERICENTER": 89.5216, "MEAN_ANOMALY": 270.6166, "EPHEMERIS_TYPE": 0, "CLASSIFICATION_TYPE": "U", "NORAD_CAT_ID": 51444, "ELEMENT_SET_NO": 999, "REV_AT_EPOCH": 20767, "BSTAR": 0.00014166266, "MEAN_MOTION_DOT": 1.076e-05, "MEAN_MOTION_DDOT": 0}, "tle": {"line1": "1 51444U 22008A   25337.97974154  .00001076  00000+0  14166-3 0  9990", "line2": "2 51444  97.8807 159.4350 0001479  89.5216 270.6166 14.82150279207677"}}, "geometry": {"type": "Point", "coordinates": [158.38712580583436, 9.877879016927869]}}, {"type": "Feature", "properties": {"norad_id": 52912, "name": "GAOFEN-12 03", "group": "resource", "lat": 4.087710616372025, "lon": -134.70249963494234, "alt_km": 632.5597068231837, "timestamp": "2025-12-04T07:39:35.828223+00:00", "meta": {"OBJECT_NAME": "GAOFEN-12 03", "OBJECT_ID": "2022-069A", "EPOCH": "2025-12-03T21:54:10.483776", "MEAN_MOTION": 14.79576499, "ECCENTRICITY": 0.00023159, "INCLINATION": 97.8487, "RA_OF_ASC_NODE": 225.4653, "ARG_OF_PERICENTER": 75.0583, "MEAN_ANOMALY": 285.0885, "EPHEMERIS_TYPE": 0, "CLASSIFICATION_TYPE": "U", "NORAD_CAT_ID": 52912, "ELEMENT_SET_NO": 999, "REV_AT_EPOCH": 18573, "BSTAR": 0.00030110527, "MEAN_MOTION_DOT": 2.204e-05, "MEAN_MOTION_DDOT": 0}, "tle": {"line1": "1 52912U 22069A   25337.91262134  .00002204  00000+0  30111-3 0  9992", "line2": "2 52912  97.8487 225.4653 0002315  75.0583 285.0885 14.79576499185731"}}, "geometry": {"type": "Point", "coordinates": [-134.70249963494234, 4.087710616372025]}}, {"type": "Feature", "properties": {"norad_id": 54754, "name": "SWOT", "group": "resource", "lat": -39.42976751982057, "lon": 128.77121279414303, "alt_km": 899.4496534762684, "timestamp": "2025-12-04T07:39:35.828232+00:00", "meta": {"OBJECT_NAME": "SWOT", "OBJECT_ID": "2022-173A", "EPOCH": "2025-12-03T22:02:08.873664", "MEAN_MOTION": 14.00172689, "ECCENTRICITY": 3.233e-05, "INCLINATION": 77.6099, "RA_OF_ASC_NODE": 298.8987, "ARG_OF_PERICENTER": 138.1609, "MEAN_ANOMALY": 221.9568, "EPHEMERIS_TYPE": 0, "CLASSIFICATION_TYPE": "U", "NORAD_CAT_ID": 54754, "ELEMENT_SET_NO": 999, "REV_AT_EPOCH": 15182, "BSTAR": 9.3238503e-05, "MEAN_MOTION_DOT": 1.35e-06, "MEAN_MOTION_DDOT": 0}, "tle": {"line1": "1 54754U 22173A   25337.91815826  .00000135  00000+0  93239-4 0  9998", "line2": "2 54754  77.6099 298.8987 0000323 138.1609 221.9568 14.00172689151820"}}, "geometry": {"type": "Point", "coordinates": [128.77121279414303, -39.42976751982057]}}, {"type": "Feature", "properties": {"norad_id": 57654, "name": "GAOFEN-12 04", "group": "resource", "lat": 8.613960864968929, "lon": 75.41142297181236, "alt_km": 632.3945009089402, "timestamp": "2025-12-04T07:39:35.828241+00:00", "meta": {"OBJECT_NAME": "GAOFEN-12 04", "OBJECT_ID": "2023-123A", "EPOCH": "2025-12-04T00:23:49.074144", "MEAN_MOTION": 14.79658567, "ECCENTRICITY": 0.00014521, "INCLINATION": 97.9117, "RA_OF_ASC_NODE": 253.9064, "ARG_OF_PERICENTER": 72.6388, "MEAN_ANOMALY": 287.4983, "EPHEMERIS_TYPE": 0, "CLASSIFICATION_TYPE": "U", "NORAD_CAT_ID": 57654, "ELEMENT_SET_NO": 999, "REV_AT_EPOCH": 12376, "BSTAR": 0.00040182288, "MEAN_MOTION_DOT": 2.964e-05, "MEAN_MOTION_DDOT": 0}, "tle": {"line1": "1 57654U 23123A   25338.01654021  .00002964  00000+0  40182-3 0  9996", "line2": "2 57654  97.9117 253.9064 0001452  72.6388 287.4983 14.79658567123766"}}, "geometry": {"type": "Point", "coordinates": [75.41142297181236, 8.613960864968929]}}, {"type": "Feature", "properties": {"norad_id": 59065, "name": "PARS 1", "group": "resource", "lat": 22.488849344190378, "lon": 132.1865522735878, "alt_km": 439.58395753749755, "timestamp": "2025-12-04T07:39:35.828251+00:00", "meta": {"OBJECT_NAME": "PARS 1", "OBJECT_ID": "2024-039Q", "EPOCH": "2025-12-03T23:11:13.803072", "MEAN_MOTION": 15.40671996, "ECCENTRICITY": 0.00126749, "INCLINATION": 97.4619, "RA_OF_ASC_NODE": 308.7158, "ARG_OF_PERICENTER": 98.1239, "MEAN_ANOMALY": 262.1445, "EPHEMERIS_TYPE": 0, "CLASSIFICATION_TYPE": "U", "NORAD_CAT_ID": 59065, "ELEMENT_SET_NO": 999, "REV_AT_EPOCH": 9853, "BSTAR": 0.00044077954, "MEAN_MOTION_DOT": 0.00017962, "MEAN_MOTION_DDOT": 0}, "tle": {"line1": "1 59065U 24039Q   25337.96613198  .00017962  00000+0  44078-3 0  9996", "line2": "2 59065  97.4619 308.7158 0012674  98.1239 262.1445 15.40671996 98534"}}, "geometry": {"type": "Point", "coordinates": [132.1865522735878, 22.488849344190378]}}, {"type": "Feature", "properties": {"norad_id": 59371, "name": "RESURS-P 4", "group": "resource", "lat": -25.51456229025335, "lon": 101.33756869177279, "alt_km": 476.91361240338483, "timestamp": "2025-12-04T07:39:35.828260+00:00", "meta": {"OBJECT_NAME": "RESURS-P 4", "OBJECT_ID": "2024-061A", "EPOCH": "2025-12-04T00:29:41.288928", "MEAN_MOTION": 15.31977712, "ECCENTRICITY": 0.00021206, "INCLINATION": 97.2532, "RA_OF_ASC_NODE": 284.5303, "ARG_OF_PERICENTER": 55.2531, "MEAN_ANOMALY": 304.891, "EPHEMERIS_TYPE": 0, "CLASSIFICATION_TYPE": "U", "NORAD_CAT_ID": 59371, "ELEMENT_SET_NO": 999, "REV_AT_EPOCH": 9387, "BSTAR": 0.00023654265, "MEAN_MOTION_DOT": 7.228e-05, "MEAN_MOTION_DDOT": 0}, "tle": {"line1": "1 59371U 24061A   25338.02061677  .00007228  00000+0  23654-3 0  9999", "line2": "2 59371  97.2532 284.5303 0002120  55.2531 304.8910 15.31977712 93871"}}, "geometry": {"type": "Point", "coordinates": [101.33756869177279, -25.51456229025335]}}, {"type": "Feature", "properties": {"norad_id": 59625, "name": "LEGION 1", "group": "resource", "lat": -3.2731374974713368, "lon": -127.40280276520082, "alt_km": 523.5361976349022, "timestamp": "2025-12-04T07:39:35.828269+00:00", "meta": {"OBJECT_NAME": "LEGION 1", "OBJECT_ID": "2024-081A", "EPOCH": "2025-12-03T21:21:07.189056", "MEAN_MOTION": 15.16340015, "ECCENTRICITY": 0.00046691, "INCLINATION": 97.5231, "RA_OF_ASC_NODE": 52.6044, "ARG_OF_PERICENTER": 352.6762, "MEAN_ANOMALY": 7.4402, "EPHEMERIS_TYPE": 0, "CLASSIFICATION_TYPE": "U", "NORAD_CAT_ID": 59625, "ELEMENT_SET_NO": 999, "REV_AT_EPOCH": 8793, "BSTAR": 0.00051976347, "MEAN_MOTION_DOT": 0.00010021, "MEAN_MOTION_DDOT": 0}, "tle": {"line1": "1 59625U 24081A   25337.88966654  .00010021  00000+0  51976-3 0  9998", "line2": "2 59625  97.5231  52.6044 0004669 352.6762   7.4402 15.16340015 87933"}}, "geometry": {"type": "Point", "coordinates": [-127.40280276520082, -3.2731374974713368]}}, {"type": "Feature", "properties": {"norad_id": 59626, "name": "LEGION 2", "group": "resource", "lat": 2.4978099782438927, "lon": 52.786743771096894, "alt_km": 516.0727923296217, "timestamp": "2025-12-04T07:39:35.828278+00:00", "meta": {"OBJECT_NAME": "LEGION 2", "OBJECT_ID": "2024-081B", "EPOCH": "2025-12-03T20:33:45.523296", "MEAN_MOTION": 15.16350178, "ECCENTRICITY": 0.00061981, "INCLINATION": 97.5233, "RA_OF_ASC_NODE": 52.6586, "ARG_OF_PERICENTER": 330.0058, "MEAN_ANOMALY": 30.0819, "EPHEMERIS_TYPE": 0, "CLASSIFICATION_TYPE": "U", "NORAD_CAT_ID": 59626, "ELEMENT_SET_NO": 999, "REV_AT_EPOCH": 8793, "BSTAR": 0.00046216578, "MEAN_MOTION_DOT": 8.906e-05, "MEAN_MOTION_DDOT": 0}, "tle": {"line1": "1 59626U 24081B   25337.85677689  .00008906  00000+0  46217-3 0  9994", "line2": "2 59626  97.5233  52.6586 0006198 330.0058  30.0819 15.16350178 87939"}}, "geometry": {"type": "Point", "coordinates": [52.786743771096894, 2.4978099782438927]}}, {"type": "Feature", "properties": {"norad_id": 60182, "name": "ALOS-4 (DAICHI-4)", "group": "resource", "lat": 57.173193082645035, "lon": 60.81893620450169, "alt_km": 624.7893021519894, "timestamp": "2025-12-04T07:39:35.828287+00:00", "meta": {"OBJECT_NAME": "ALOS-4 (DAICHI-4)", "OBJECT_ID": "2024-123A", "EPOCH": "2025-11-30T09:15:12.370176", "MEAN_MOTION": 14.79468497, "ECCENTRICITY": 0.000127, "INCLINATION": 97.9232, "RA_OF_ASC_NODE": 69.4089, "ARG_OF_PERICENTER": 105.4124, "MEAN_ANOMALY": 254.7228, "EPHEMERIS_TYPE": 0, "CLASSIFICATION_TYPE": "U", "NORAD_CAT_ID": 60182, "ELEMENT_SET_NO": 999, "REV_AT_EPOCH": 7648, "BSTAR": -8.429942e-06, "MEAN_MOTION_DOT": -1.14e-06, "MEAN_MOTION_DDOT": 0}, "tle": {"line1": "1 60182U 24123A   25334.38555984 -.00000114  00000+0 -84299-5 0  9997", "line2": "2 60182  97.9232  69.4089 0001270 105.4124 254.7228 14.79468497 76488"}}, "geometry": {"type": "Point", "coordinates": [60.81893620450169, 57.173193082645035]}}, {"type": "Feature", "properties": {"norad_id": 60452, "name": "LEGION 3", "group": "resource", "lat": -2.802054969855875, "lon": -7.539628718359489, "alt_km": 528.0691799352289, "timestamp": "2025-12-04T07:39:35.828297+00:00", "meta": {"OBJECT_NAME": "LEGION 3", "OBJECT_ID": "2024-146A", "EPOCH": "2025-12-03T12:41:41.864064", "MEAN_MOTION": 15.15602426, "ECCENTRICITY": 0.00137997, "INCLINATION": 45.0022, "RA_OF_ASC_NODE": 359.5047, "ARG_OF_PERICENTER": 146.3627, "MEAN_ANOMALY": 213.813, "EPHEMERIS_TYPE": 0, "CLASSIFICATION_TYPE": "U", "NORAD_CAT_ID": 60452, "ELEMENT_SET_NO": 999, "REV_AT_EPOCH": 7233, "BSTAR": 0.00041994728, "MEAN_MOTION_DOT": 7.872e-05, "MEAN_MOTION_DDOT": 0}, "tle": {"line1": "1 60452U 24146A   25337.52895676  .00007872  00000+0  41995-3 0  9996", "line2": "2 60452  45.0022 359.5047 0013799 146.3627 213.8130 15.15602426 72338"}}, "geometry": {"type": "Point", "coordinates": [-7.539628718359489, -2.802054969855875]}}]}